INTELSAT 9 (IS-9)       
1 26451U 00043A   25140.89004317 -.00000004  00000+0  00000+0 0  9992
2 26451   9.5234  52.7470 0004230  17.4284 195.2716  1.00272153 90914
INTELSAT 10 (IS-10)     
1 26766U 01019A   25141.38877876  .00000001  00000+0  00000+0 0  9994
2 26766   8.1362  63.2495 0004054 348.4333  33.6588  1.00272508 41697
INTELSAT 902 (IS-902)   
1 26900U 01039A   25136.72534451 -.00000270  00000+0  00000+0 0  9996
2 26900   5.1155  76.6246 0004288 333.8428  35.2434  1.00270889 86729
INTELSAT 904 (IS-904)   
1 27380U 02007A   25140.08487451 -.00000204  00000+0  00000+0 0  9993
2 27380   5.9343  73.8922 0002949 350.2197 174.9176  1.00269613 47822
DIRECTV 5 (TEMPO 1)     
1 27426U 02023A   25141.42529888 -.00000046  00000+0  00000+0 0  9996
2 27426   3.8741  80.2229 0003345 343.1136 218.9651  1.00271086 84194
INTELSAT 905 (IS-905)   
1 27438U 02027A   25141.55763150  .00000106  00000+0  00000+0 0  9995
2 27438   5.7665  74.5131 0002719 334.6858 253.7851  1.00270619 47437
GALAXY 3C (G-3C)        
1 27445U 02030A   25141.57113484 -.00000142  00000+0  00000+0 0  9999
2 27445   2.7209  82.9441 0003267  43.8463 223.4342  1.00270666 42563
INTELSAT 906 (IS-906)   
1 27513U 02041A   25141.38843124  .00000024  00000+0  00000+0 0  9995
2 27513   4.8070  77.7585 0003691 350.6806  14.8106  1.00271890 83105
GALAXY 23 (G-23)        
1 27854U 03034A   25141.56592201  .00000023  00000+0  00000+0 0  9992
2 27854   2.1842  84.5659 0002981 349.4579 248.2711  1.00270708 79818
GALAXY 13 (HORIZONS-1)  
1 27954U 03044A   25141.54870308  .00000142  00000+0  00000+0 0  9991
2 27954   0.4063  90.0524 0002126 326.5269 230.3800  1.00271646 42645
INTELSAT 10-02          
1 28358U 04022A   25141.17544818  .00000008  00000+0  00000+0 0  9991
2 28358   0.0451  93.1113 0002569 156.4861  51.7775  1.00317709 76620
XM-3 (RHYTHM)           
1 28626U 05008A   25141.57278557 -.00000190  00000+0  00000+0 0  9995
2 28626   0.0280  83.9193 0001049 129.7769 145.6499  1.00270488 38698
DIRECTV 8               
1 28659U 05019A   25141.56626954  .00000010  00000+0  00000+0 0  9990
2 28659   0.0182 296.5839 0003124 128.7396 258.9511  1.00276665 73140
GALAXY 28 (G-28)        
1 28702U 05022A   25141.57235117 -.00000177  00000+0  00000+0 0  9996
2 28702   2.2903  83.8217 0001576 350.5414 282.4391  1.00272878 48058
GALAXY 16 (G-16)        
1 29236U 06023A   25141.57945910 -.00000118  00000+0  00000+0 0  9995
2 29236   0.0212 106.3654 0002833 323.6965 279.0136  1.00272588 69347
DIRECTV 9S              
1 29494U 06043A   25141.56983163 -.00000103  00000+0  00000+0 0  9998
2 29494   1.4083  85.7175 0003026 332.1839 285.4969  1.00271956 47453
GALAXY 17 (G-17)        
1 31307U 07016B   25141.57304622 -.00000196  00000+0  00000+0 0  9995
2 31307   1.9795  84.9287 0001685  52.4760 223.3653  1.00271566 65877
DIRECTV 10              
1 31862U 07032A   25141.56948412 -.00000094  00000+0  00000+0 0  9996
2 31862   0.0028 134.9270 0000152 210.9576 355.7995  1.00270888 41660
INTELSAT 11 (IS-11)     
1 32253U 07044B   25141.00841547  .00000086  00000+0  00000+0 0  9994
2 32253   2.5424  83.5385 0001740  44.1771 164.9632  0.99044481 64563
HORIZONS-2              
1 32388U 07063B   25141.42196348 -.00000243  00000+0  00000+0 0  9998
2 32388   1.5896  85.5369 0002021 340.9417 250.9576  1.00272217 63885
DIRECTV 11              
1 32729U 08013A   25141.42046972 -.00000116  00000+0  00000+0 0  9999
2 32729   0.0009 113.8580 0000414 161.4115  16.2221  1.00265833 41667
GALAXY 18 (G-18)        
1 32951U 08024A   25141.56548762  .00000034  00000+0  00000+0 0  9995
2 32951   0.0304 105.3149 0003282 317.6308 257.0867  1.00273296 41926
INTELSAT 25 (IS-25)     
1 33153U 08034A   25141.44085047 -.00000214  00000+0  00000+0 0  9991
2 33153   1.6963  85.1954 0003048 337.7952 303.5462  1.00273336 61763
GALAXY 19 (G-19)        
1 33376U 08045A   25141.57070044 -.00000130  00000+0  00000+0 0  9992
2 33376   0.0314 108.5285 0003105 323.3452 276.0502  1.00274203 60975
FM-5                    
1 35493U 09034A   25141.42858149 -.00000191  00000+0  00000+0 0  9994
2 35493   0.0133 289.5570 0000456 301.8536  76.0512  1.00269842 42717
INTELSAT 14 (IS-14)     
1 36097U 09064A   25141.40114148 -.00000264  00000+0  00000+0 0  9991
2 36097   0.0142 301.4250 0002416 120.5889 276.6912  1.00270648 56670
INTELSAT 15 (IS-15)     
1 36106U 09067A   25141.16294747 -.00000176  00000+0  00000+0 0  9994
2 36106   0.0165 325.4166 0002291 103.6667 313.7899  1.00270409 37294
DIRECTV 12              
1 36131U 09075A   25141.56957100 -.00000094  00000+0  00000+0 0  9993
2 36131   0.0010  40.4019 0000509  18.4502 282.9291  1.00271100 42628
INTELSAT 16 (IS-16)     
1 36397U 10006A   25141.42040250 -.00000235  00000+0  00000+0 0  9994
2 36397   0.0435  93.4502 0002464 358.1985 222.8131  1.00272334 55720
XM-5                    
1 37185U 10053A   25141.56705146 -.00000013  00000+0  00000+0 0  9993
2 37185   0.0334 280.1711 0002702 276.8371 131.3843  1.00269280 53550
INTELSAT 17 (IS-17)     
1 37238U 10065B   25141.43864289  .00000007  00000+0  00000+0 0  9997
2 37238   0.0145 282.4497 0002388 146.5955  34.1930  1.00273548 49325
INTELSAT 28 (IS-28)     
1 37392U 11016A   25141.44085047 -.00000215  00000+0  00000+0 0  9995
2 37392   0.7920  87.7874 0004133 333.1445 305.4192  1.00272239 49350
INTELSAT 18 (IS-18)     
1 37834U 11056A   25141.56309728  .00000062  00000+0  00000+0 0  9997
2 37834   0.0126 290.9041 0001937 139.2023 192.0710  1.00272291 49884
INTELSAT 22 (IS-22)     
1 38098U 12011A   25141.43864289 -.00000050  00000+0  00000+0 0  9994
2 38098   0.0078  71.9284 0001856 353.4922  43.9243  1.00272155  3263
INTELSAT 19 (IS-19)     
1 38356U 12030A   25141.57103574 -.00000047  00000+0  00000+0 0  9996
2 38356   0.0156 301.2345 0003090 122.4685 187.3455  1.00272603 46528
INTELSAT 20 (IS-20)     
1 38740U 12043A   25141.43864289 -.00000016  00000+0  00000+0 0  9995
2 38740   0.0074 150.7061 0001646  38.5122 276.5177  1.00271846 46827
INTELSAT 21 (IS-21)     
1 38749U 12045A   25141.40669662 -.00000275  00000+0  00000+0 0  9998
2 38749   0.0196 280.8268 0001622 146.3663 260.5080  1.00269651 46598
INTELSAT 23 (IS-23)     
1 38867U 12057A   25141.40669662 -.00000275  00000+0  00000+0 0  9992
2 38867   0.0349 138.8230 0001407   0.5863 193.2812  1.00262798 46022
FM-6                    
1 39360U 13058A   25141.53525579 -.00000008  00000+0  00000+0 0  9999
2 39360   0.0137 320.2510 0001421 185.1242 170.5739  1.00271710 42139
INTELSAT 30 (IS-30)     
1 40271U 14062A   25141.40309109 -.00000141  00000+0  00000+0 0  9991
2 40271   0.0198  23.9171 0000901  31.6212 233.8089  1.00269204  2854
DIRECTV 14              
1 40333U 14078B   25141.42747089 -.00000116  00000+0  00000+0 0  9994
2 40333   0.0190 298.8881 0000400 254.2604 100.8385  1.00268328 38114
DIRECTV 15              
1 40663U 15026A   25141.56948412 -.00000093  00000+0  00000+0 0  9996
2 40663   0.0467 100.9434 0000344  69.5663 171.0987  1.00268636 36537
SKY MEXICO-1            
1 40664U 15026B   25141.32094303 -.00000225  00000+0  00000+0 0  9999
2 40664   0.0299  14.7028 0002763  72.6945 188.6047  1.00272080 36525
INTELSAT 34 (IS-34)     
1 40874U 15039A   25141.40669662 -.00000276  00000+0  00000+0 0  9997
2 40874   0.0171 295.6075 0000686  22.6835  11.9304  1.00270342 35694
INTELSAT 31 (IS-31)     
1 41581U 16035A   25141.41919306 -.00000141  00000+0  00000+0 0  9995
2 41581   0.0160 272.4465 0001986 323.5149  59.2089  1.00271170 32758
INTELSAT 36 (IS-36)     
1 41747U 16053A   25141.43864289 -.00000016  00000+0  00000+0 0  9991
2 41747   0.0119 350.0032 0001344 333.0330 142.7014  1.00270312 32028
INTELSAT 32E (IS-32E)   
1 41945U 17007B   25141.40114148 -.00000260  00000+0  00000+0 0  9991
2 41945   0.0281  74.2247 0000429 256.6730   9.6254  1.00268607 30296
INTELSAT 35E (IS-35E)   
1 42818U 17041A   25141.44024231 -.00000229  00000+0  00000+0 0  9991
2 42818   0.0154 303.0016 0001882 112.2559 308.0628  1.00270107 28883
INTELSAT 37E (IS-37E)   
1 42950U 17059A   25141.58626103 -.00000132  00000+0  00000+0 0  9991
2 42950   0.0211 297.2418 0002288 137.3998 357.8809  1.00269798 28135
AZERSPACE 2 (IS-38)     
1 43632U 18074A   25141.18517030  .00000145  00000+0  00000+0 0  9994
2 43632   0.0016 349.4278 0001361  80.5389 280.8786  1.00270444 24511
HORIZONS-3E             
1 43633U 18074B   25141.58586612 -.00000022  00000+0  00000+0 0  9996
2 43633   0.0427 145.1333 0000318 175.9693 298.2873  1.00269159 24419
AT&T T-16               
1 44333U 19034A   25141.48250972 -.00000106  00000+0  00000+0 0  9990
2 44333   0.0436 109.0257 0000110 108.4070  94.7745  1.00270409 21707
INTELSAT 39 (IS-39)     
1 44476U 19049B   25141.60216014  .00000042  00000+0  00000+0 0  9995
2 44476   0.0192 296.5759 0000614  17.8124 203.8233  1.00270160 21209
GALAXY 30 (G-30)        
1 46114U 20056C   25141.56514009  .00000046  00000+0  00000+0 0  9990
2 46114   0.0142 346.3996 0002250  81.2710 250.2444  1.00272711 17362
GALAXY 33 (G-33)        
1 54026U 22128A   25141.43305633  .00000088  00000+0  00000+0 0  9996
2 54026   0.0128  22.3258 0001865  39.8084 200.0993  1.00270410  9810
GALAXY 34 (G-34)        
1 54027U 22128B   25141.61118316  .00000068  00000+0  00000+0 0  9995
2 54027   0.0181 297.5617 0001546 133.2120 259.7325  1.00270181  9984
GALAXY 31 (G-31)        
1 54243U 22153A   25141.56592201  .00000022  00000+0  00000+0 0  9996
2 54243   0.0062 120.1901 0000664 244.2309 317.7689  1.00271595  3208
GALAXY 32 (G-32)        
1 54244U 22153B   25141.31004699 -.00000165  00000+0  00000+0 0  9998
2 54244   0.0083 336.4016 0002432  52.0733 231.3504  1.00271681  9212
GALAXY 35 (G-35)        
1 54741U 22170A   25141.42868722 -.00000153  00000+0  00000+0 0  9993
2 54741   0.0100 294.6930 0001873 130.2422 235.6080  1.00269563  8969
GALAXY 36 (G-36)        
1 54742U 22170B   25141.42946914 -.00000176  00000+0  00000+0 0  9999
2 54742   0.0155 270.1695 0002998 164.8136 229.9524  1.00272512  8845
GALAXY 37 (G-37)        
1 57493U 23112A   25141.59783897  .00000057  00000+0  00000+0 0  9996
2 57493   0.0123 304.7213 0001939 114.4352 268.5546  1.00272486  6617
